STARLINK-34960          
1 65219U 25176X   26196.49672907  .00010134  00000+0  31066-3 0  9999
2 65219  53.1589 277.2816 0001415  79.9887 280.1276 15.34398626 52716
STARLINK-34603          
1 65220U 25176Y   26196.44622891  .00008965  00000+0  27621-3 0  9994
2 65220  53.1581 276.9700 0001044  94.4809 265.6313 15.34393461 52714
STARLINK-34974          
1 65221U 25176Z   26196.52189643  .00015630  00000+0  47305-3 0  9995
2 65221  53.1583 276.7263 0001134  72.8343 287.2784 15.34379536 52722
STARLINK-34999          
1 65222U 25176AA  26196.49462357  .00006527  00000+0  20421-3 0  9993
2 65222  53.1590 277.2694 0001180  97.7791 262.3346 15.34390585 52713
STARLINK-34996          
1 65223U 25176AB  26196.49251724  .00008639  00000+0  26656-3 0  9990
2 65223  53.1589 277.2523 0000257 103.9431 256.1600 15.34393535 52710
STARLINK-34975          
1 65224U 25176AC  26196.47149938  .00029183  00000+0  87161-3 0  9997
2 65224  53.1580 277.1212 0001017 128.3546 231.7548 15.34395918 52716
STARLINK-34257          
1 65225U 25176AD  26196.54082428  .00021567  00000+0  64750-3 0  9993
2 65225  53.1583 276.8416 0001254  68.8583 291.2554 15.34404486 52667
SHIYAN-28B 02           
1 65226U 25177A   26196.92267088  .00000542  00000+0  42598-4 0  9991
2 65226  10.9992 106.4779 0003727 303.6034  56.3838 14.29406701 47654
SKYKRAFT-4E             
1 65227U 25154L   26196.70874589  .00003604  00000+0  30807-3 0  9994
2 65227  97.6660 261.0014 0006155 158.3441 201.8043 14.98246494 51606
HULIANWANG DIGUI-68     
1 65228U 25178A   26196.91426234 -.00000009  00000+0 -54697-4 0  9996
2 65228  86.4989   3.8253 0002002  91.6496 268.4868 13.24411272 44118
HULIANWANG DIGUI-69     
1 65229U 25178B   26196.90681871 -.00000002  00000+0 -39154-4 0  9990
2 65229  86.5009   3.8884 0001915  92.0188 268.1166 13.24412705 44118
HULIANWANG DIGUI-70     
1 65230U 25178C   26196.89925712  .00000005  00000+0 -22641-4 0  9990
2 65230  86.4948   3.6815 0002005  90.0363 270.1001 13.24411823 44118
HULIANWANG DIGUI-71     
1 65231U 25178D   26196.96726707  .00000017  00000+0  57160-5 0  9999
2 65231  86.5006   3.8478 0001981  90.7138 269.4223 13.24411528 44121
HULIANWANG DIGUI-72     
1 65232U 25178E   26196.88416498  .00000030  00000+0  34856-4 0  9995
2 65232  86.4989   3.8122 0001986  90.9973 269.1389 13.24411006 44111
STARLINK-34842          
1 65235U 25179A   26196.91668981  .00031758  00000+0  19232-2 0  9999
2 65235  97.2841 237.3216 0002774  90.4184  48.3232 15.10525336  5596
STARLINK-34938          
1 65236U 25179B   26196.91668981  .02226461  00000+0  11505+0 0  9991
2 65236  97.2828 237.2227 0001050 204.0289 110.4501 15.12736613  5738
STARLINK-34958          
1 65237U 25179C   26196.91668981  .02787281  00000+0  15000+0 0  9998
2 65237  97.2836 237.2284 0002093  93.3881 176.3021 15.11028490  5796
STARLINK-34818          
1 65238U 25179D   26196.91668981 -.00067374  00000+0 -41137-2 0  9996
2 65238  97.2846 237.2879 0002483  80.1815 319.6718 15.10627358  5749
STARLINK-34964          
1 65239U 25179E   26196.91668981  .04676258  00000+0  18085+0 0  9999
2 65239  97.2786 237.2473 0002319  83.8801 262.2769 15.21960348  5825
STARLINK-34953          
1 65240U 25179F   26196.91668981  .04029774  00000+0  18035+0 0  9991
2 65240  97.2771 237.2298 0001610 108.5333 215.9439 15.16789064  5742
STARLINK-34969          
1 65241U 25179G   26196.91668981  .00020820  00000+0  12639-2 0  9998
2 65241  97.2840 237.2670 0001552  86.9052 269.6635 15.10527397  5787
STARLINK-34963          
1 65242U 25179H   26196.91668981  .00030750  00000+0  18627-2 0  9995
2 65242  97.2832 237.3361 0001191  93.1877  60.1015 15.10523500  5644
STARLINK-34982          
1 65243U 25179J   26196.91668981  .04125887  00000+0  19285+0 0  9994
2 65243  97.2808 237.2178 0001413 233.3012  48.0733 15.15127599  5790
STARLINK-34990          
1 65244U 25179K   26196.91668981  .02827153  00000+0  15027+0 0  9998
2 65244  97.2842 237.2906 0001828  85.2495 325.9835 15.11425957  5792
STARLINK-34977          
1 65245U 25179L   26196.91668981  .00444876  00000+0  25476-1 0  9995
2 65245  97.2843 237.2595 0002033  71.9120 269.2787 15.10387560  5820
STARLINK-34959          
1 65246U 25179M   26196.91668981  .02805324  00000+0  10571+0 0  9995
2 65246  97.2845 237.2685 0001595  82.3942 241.1933 15.23582808  5696
STARLINK-34923          
1 65247U 25179N   26196.38834885  .01419969  00000+0  63396-1 0  9995
2 65247  97.2848 236.7581 0000018 233.3361 126.7872 15.18360731 51088
STARLINK-34962          
1 65248U 25179P   26196.85452942  .00598096  00000+0  34993-1 0  9997
2 65248  97.2842 237.1993 0002629  99.9281 260.2246 15.09669450 51115
STARLINK-34925          
1 65249U 25179Q   26196.90447962  .00458637  00000+0  28868-1 0  9990
2 65249  97.2846 237.2886 0001880 126.1876 233.9526 15.07191152 51118
STARLINK-34973          
1 65250U 25179R   26196.91668981  .00018108  00000+0  11005-2 0  9990
2 65250  97.2841 237.3253 0002059  83.8840  42.0174 15.10518322  5790
