OBJECT_NAME,OBJECT_ID,EPOCH,MEAN_MOTION,ECCENTRICITY,INCLINATION,RA_OF_ASC_NODE,ARG_OF_PERICENTER,MEAN_ANOMALY,EPHEMERIS_TYPE,CLASSIFICATION_TYPE,NORAD_CAT_ID,ELEMENT_SET_NO,REV_AT_EPOCH,BSTAR,MEAN_MOTION_DOT,MEAN_MOTION_DDOT
STARLINK-34960,2025-176X,2026-07-15T11:55:17.391648,15.34398626,.00014156,53.1589,277.2816,79.9887,280.1276,0,U,65219,999,5271,.3106647E-3,.10134E-3,0
STARLINK-34603,2025-176Y,2026-07-15T10:42:34.177824,15.34393461,.00010449,53.1581,276.9700,94.4809,265.6313,0,U,65220,999,5271,.27621349E-3,.8965E-4,0
STARLINK-34974,2025-176Z,2026-07-15T12:31:31.851552,15.34379536,.00011342,53.1583,276.7263,72.8343,287.2784,0,U,65221,999,5272,.4730489E-3,.1563E-3,0
STARLINK-34999,2025-176AA,2026-07-15T11:52:15.476448,15.34390585,.00011803,53.1590,277.2694,97.7791,262.3346,0,U,65222,999,5271,.20420796E-3,.6527E-4,0
STARLINK-34996,2025-176AB,2026-07-15T11:49:13.489536,15.34393535,.00002573,53.1589,277.2523,103.9431,256.1600,0,U,65223,999,5271,.26655852E-3,.8639E-4,0
STARLINK-34975,2025-176AC,2026-07-15T11:18:57.546432,15.34395918,.00010178,53.1580,277.1212,128.3546,231.7548,0,U,65224,999,5271,.87160784E-3,.29183E-3,0
STARLINK-34257,2025-176AD,2026-07-15T12:58:47.217792,15.34404486,.00012544,53.1583,276.8416,68.8583,291.2554,0,U,65225,999,5266,.64749938E-3,.21567E-3,0
SHIYAN-28B 02,2025-177A,2026-07-15T22:08:38.764032,14.29406701,.00037272,10.9992,106.4779,303.6034,56.3838,0,U,65226,999,4765,.42597712E-4,.542E-5,0
SKYKRAFT-4E,2025-154L,2026-07-15T17:00:35.644896,14.98246494,.00061552,97.6660,261.0014,158.3441,201.8043,0,U,65227,999,5160,.3080708E-3,.3604E-4,0
HULIANWANG DIGUI-68,2025-178A,2026-07-15T21:56:32.266176,13.24411272,.00020022,86.4989,3.8253,91.6496,268.4868,0,U,65228,999,4411,-.54696861E-4,-.9E-7,0
HULIANWANG DIGUI-69,2025-178B,2026-07-15T21:45:49.136544,13.24412705,.00019153,86.5009,3.8884,92.0188,268.1166,0,U,65229,999,4411,-.39153652E-4,-.2E-7,0
HULIANWANG DIGUI-70,2025-178C,2026-07-15T21:34:55.815168,13.24411823,.00020057,86.4948,3.6815,90.0363,270.1001,0,U,65230,999,4411,-.22640953E-4,.5E-7,0
HULIANWANG DIGUI-71,2025-178D,2026-07-15T23:12:51.874848,13.24411528,.00019814,86.5006,3.8478,90.7138,269.4223,0,U,65231,999,4412,.5716039E-5,.17E-6,0
HULIANWANG DIGUI-72,2025-178E,2026-07-15T21:13:11.854272,13.24411006,.00019867,86.4989,3.8122,90.9973,269.1389,0,U,65232,999,4411,.34855597E-4,.3E-6,0
STARLINK-34842,2025-179A,2026-07-15T22:00:01.999584,15.10525336,.00027741,97.2841,237.3216,90.4184,48.3232,0,U,65235,999,559,.19232063E-2,.31758E-3,0
STARLINK-34938,2025-179B,2026-07-15T22:00:01.999584,15.12736613,.00010504,97.2828,237.2227,204.0289,110.4501,0,U,65236,999,573,.11505279E+0,.2226461E-1,0
STARLINK-34958,2025-179C,2026-07-15T22:00:01.999584,15.11028490,.00020934,97.2836,237.2284,93.3881,176.3021,0,U,65237,999,579,.15000331E+0,.2787281E-1,0
STARLINK-34818,2025-179D,2026-07-15T22:00:01.999584,15.10627358,.00024835,97.2846,237.2879,80.1815,319.6718,0,U,65238,999,574,-.41136928E-2,-.67374E-3,0
STARLINK-34964,2025-179E,2026-07-15T22:00:01.999584,15.21960348,.00023199,97.2786,237.2473,83.8801,262.2769,0,U,65239,999,582,.18084732E+0,.4676258E-1,0
STARLINK-34953,2025-179F,2026-07-15T22:00:01.999584,15.16789064,.00016104,97.2771,237.2298,108.5333,215.9439,0,U,65240,999,574,.18034849E+0,.4029774E-1,0
STARLINK-34969,2025-179G,2026-07-15T22:00:01.999584,15.10527397,.00015522,97.2840,237.2670,86.9052,269.6635,0,U,65241,999,578,.12639454E-2,.2082E-3,0
STARLINK-34963,2025-179H,2026-07-15T22:00:01.999584,15.10523500,.00011913,97.2832,237.3361,93.1877,60.1015,0,U,65242,999,564,.18627269E-2,.3075E-3,0
STARLINK-34982,2025-179J,2026-07-15T22:00:01.999584,15.15127599,.00014131,97.2808,237.2178,233.3012,48.0733,0,U,65243,999,579,.19285129E+0,.4125887E-1,0
STARLINK-34990,2025-179K,2026-07-15T22:00:01.999584,15.11425957,.00018282,97.2842,237.2906,85.2495,325.9835,0,U,65244,999,579,.15026606E+0,.2827153E-1,0
STARLINK-34977,2025-179L,2026-07-15T22:00:01.999584,15.10387560,.00020337,97.2843,237.2595,71.9120,269.2787,0,U,65245,999,582,.25476293E-1,.444876E-2,0
STARLINK-34959,2025-179M,2026-07-15T22:00:01.999584,15.23582808,.00015955,97.2845,237.2685,82.3942,241.1933,0,U,65246,999,569,.10571375E+0,.2805324E-1,0
STARLINK-34923,2025-179N,2026-07-15T09:19:13.340640,15.18360731,.00000186,97.2848,236.7581,233.3361,126.7872,0,U,65247,999,5108,.633956E-1,.1419969E-1,0
STARLINK-34962,2025-179P,2026-07-15T20:30:31.341888,15.09669450,.00026292,97.2842,237.1993,99.9281,260.2246,0,U,65248,999,5111,.3499275E-1,.598096E-2,0
STARLINK-34925,2025-179Q,2026-07-15T21:42:27.039168,15.07191152,.00018804,97.2846,237.2886,126.1876,233.9526,0,U,65249,999,5111,.28868041E-1,.458637E-2,0
STARLINK-34973,2025-179R,2026-07-15T22:00:01.999584,15.10518322,.00020599,97.2841,237.3253,83.8840,42.0174,0,U,65250,999,579,.1100471E-2,.18108E-3,0
